{"type": "FeatureCollection", "features": [ {"type": "Feature", "properties": {"norad_id": 28649, "name": "IRS-P5 (CARTOSAT-1)", "group": "resource", "lat": -70.26092464857942, "lon": 165.1633791032792, "alt_km": 605.1554179913837, "timestamp": "2025-12-06T03:35:01.453813+00:00", "meta": {"OBJECT_NAME": "IRS-P5 (CARTOSAT-1)", "OBJECT_ID": "2005-017A", "EPOCH": "2025-12-05T00:40:35.239296", "MEAN_MOTION": 14.90364948, "ECCENTRICITY": 0.00017015, "INCLINATION": 97.5497, "RA_OF_ASC_NODE": 5.7837, "ARG_OF_PERICENTER": 51.9794, "MEAN_ANOMALY": 308.1578, "EPHEMERIS_TYPE": 0, "CLASSIFICATION_TYPE": "U", "NORAD_CAT_ID": 28649, "ELEMENT_SET_NO": 999, "REV_AT_EPOCH": 11489, "BSTAR": 0.00042893162, "MEAN_MOTION_DOT": 4.122e-05, "MEAN_MOTION_DDOT": 0}, "tle": {"line1": "1 28649U 05017A   25339.02818564  .00004122  00000+0  42893-3 0  9995", "line2": "2 28649  97.5497   5.7837 0001701  51.9794 308.1578 14.90364948114899"}}, "geometry": {"type": "Point", "coordinates": [165.1633791032792, -70.26092464857942]}}, {"type": "Feature", "properties": {"norad_id": 28893, "name": "SINAH 1", "group": "resource", "lat": 28.72406357652152, "lon": -66.74491510398678, "alt_km": 668.6286447289267, "timestamp": "2025-12-06T03:35:01.453824+00:00", "meta": {"OBJECT_NAME": "SINAH 1", "OBJECT_ID": "2005-043D", "EPOCH": "2025-12-05T07:12:45.505152", "MEAN_MOTION": 14.6394944, "ECCENTRICITY": 0.00149346, "INCLINATION": 98.26, "RA_OF_ASC_NODE": 107.8381, "ARG_OF_PERICENTER": 159.2792, "MEAN_ANOMALY": 200.9019, "EPHEMERIS_TYPE": 0, "CLASSIFICATION_TYPE": "U", "NORAD_CAT_ID": 28893, "ELEMENT_SET_NO": 999, "REV_AT_EPOCH": 7215, "BSTAR": 0.00019678075, "MEAN_MOTION_DOT": 9.82e-06, "MEAN_MOTION_DDOT": 0}, "tle": {"line1": "1 28893U 05043D   25339.30052668  .00000982  00000+0  19678-3 0  9996", "line2": "2 28893  98.2600 107.8381 0014934 159.2792 200.9019 14.63949440 72151"}}, "geometry": {"type": "Point", "coordinates": [-66.74491510398678, 28.72406357652152]}}, {"type": "Feature", "properties": {"norad_id": 29079, "name": "EROS B", "group": "resource", "lat": -59.62691403918478, "lon": -96.30034824699808, "alt_km": 376.90160691337314, "timestamp": "2025-12-06T03:35:01.453836+00:00", "meta": {"OBJECT_NAME": "EROS B", "OBJECT_ID": "2006-014A", "EPOCH": "2025-12-05T08:09:07.804224", "MEAN_MOTION": 15.65450586, "ECCENTRICITY": 0.00019368, "INCLINATION": 97.3491, "RA_OF_ASC_NODE": 95.5771, "ARG_OF_PERICENTER": 247.3839, "MEAN_ANOMALY": 112.7216, "EPHEMERIS_TYPE": 0, "CLASSIFICATION_TYPE": "U", "NORAD_CAT_ID": 29079, "ELEMENT_SET_NO": 999, "REV_AT_EPOCH": 8964, "BSTAR": 0.0018581162, "MEAN_MOTION_DOT": 0.00189318, "MEAN_MOTION_DDOT": 0}, "tle": {"line1": "1 29079U 06014A   25339.33967366  .00189318  00000+0  18581-2 0  9997", "line2": "2 29079  97.3491  95.5771 0001936 247.3839 112.7216 15.65450586 89643"}}, "geometry": {"type": "Point", "coordinates": [-96.30034824699808, -59.62691403918478]}}, {"type": "Feature", "properties": {"norad_id": 29228, "name": "RESURS-DK 1", "group": "resource", "lat": 0.8210408620456153, "lon": 119.16953940869291, "alt_km": 532.8969160601428, "timestamp": "2025-12-06T03:35:01.453847+00:00", "meta": {"OBJECT_NAME": "RESURS-DK 1", "OBJECT_ID": "2006-021A", "EPOCH": "2025-12-04T19:49:36.703200", "MEAN_MOTION": 15.12091042, "ECCENTRICITY": 0.00078405, "INCLINATION": 69.9333, "RA_OF_ASC_NODE": 122.2869, "ARG_OF_PERICENTER": 264.5518, "MEAN_ANOMALY": 95.4754, "EPHEMERIS_TYPE": 0, "CLASSIFICATION_TYPE": "U", "NORAD_CAT_ID": 29228, "ELEMENT_SET_NO": 999, "REV_AT_EPOCH": 7318, "BSTAR": 0.00035246267, "MEAN_MOTION_DOT": 5.981e-05, "MEAN_MOTION_DDOT": 0}, "tle": {"line1": "1 29228U 06021A   25338.82611925  .00005981  00000+0  35246-3 0  9992", "line2": "2 29228  69.9333 122.2869 0007840 264.5518  95.4754 15.12091042 73186"}}, "geometry": {"type": "Point", "coordinates": [119.16953940869291, 0.8210408620456153]}}, {"type": "Feature", "properties": {"norad_id": 29268, "name": "ARIRANG-2 (KOMPSAT-2)", "group": "resource", "lat": 43.52004723772541, "lon": 161.43807733292056, "alt_km": 672.2298089511733, "timestamp": "2025-12-06T03:35:01.453858+00:00", "meta": {"OBJECT_NAME": "ARIRANG-2 (KOMPSAT-2)", "OBJECT_ID": "2006-031A", "EPOCH": "2025-12-05T08:16:07.353984", "MEAN_MOTION": 14.64483652, "ECCENTRICITY": 0.00138761, "INCLINATION": 97.8264, "RA_OF_ASC_NODE": 168.178, "ARG_OF_PERICENTER": 333.6501, "MEAN_ANOMALY": 149.8821, "EPHEMERIS_TYPE": 0, "CLASSIFICATION_TYPE": "U", "NORAD_CAT_ID": 29268, "ELEMENT_SET_NO": 999, "REV_AT_EPOCH": 3310, "BSTAR": 0.00015396569, "MEAN_MOTION_DOT": 7.71e-06, "MEAN_MOTION_DDOT": 0}, "tle": {"line1": "1 29268U 06031A   25339.34452956  .00000771  00000+0  15397-3 0  9999", "line2": "2 29268  97.8264 168.1780 0013876 333.6501 149.8821 14.64483652 33105"}}, "geometry": {"type": "Point", "coordinates": [161.43807733292056, 43.52004723772541]}}, {"type": "Feature", "properties": {"norad_id": 29709, "name": "LAPAN-TUBSAT", "group": "resource", "lat": -16.824106632663472, "lon": 147.6946060144464, "alt_km": 618.6557790111237, "timestamp": "2025-12-06T03:35:01.453869+00:00", "meta": {"OBJECT_NAME": "LAPAN-TUBSAT", "OBJECT_ID": "2007-001A", "EPOCH": "2025-12-05T05:41:16.862208", "MEAN_MOTION": 14.85653127, "ECCENTRICITY": 0.00136226, "INCLINATION": 98.1252, "RA_OF_ASC_NODE": 329.2395, "ARG_OF_PERICENTER": 96.401, "MEAN_ANOMALY": 263.8756, "EPHEMERIS_TYPE": 0, "CLASSIFICATION_TYPE": "U", "NORAD_CAT_ID": 29709, "ELEMENT_SET_NO": 999, "REV_AT_EPOCH": 2235, "BSTAR": 0.00015310737, "MEAN_MOTION_DOT": 1.271e-05, "MEAN_MOTION_DDOT": 0}, "tle": {"line1": "1 29709U 07001A   25339.23700072  .00001271  00000+0  15311-3 0  9992", "line2": "2 29709  98.1252 329.2395 0013622  96.4010 263.8756 14.85653127 22354"}}, "geometry": {"type": "Point", "coordinates": [147.6946060144464, -16.824106632663472]}}, {"type": "Feature", "properties": {"norad_id": 31113, "name": "HAIYANG-1B", "group": "resource", "lat": -61.25658553341631, "lon": -19.804917337827725, "alt_km": 800.6049568608314, "timestamp": "2025-12-06T03:35:01.453891+00:00", "meta": {"OBJECT_NAME": "HAIYANG-1B", "OBJECT_ID": "2007-010A", "EPOCH": "2025-12-04T23:20:46.045824", "MEAN_MOTION": 14.30961021, "ECCENTRICITY": 0.0014547, "INCLINATION": 98.3308, "RA_OF_ASC_NODE": 323.5721, "ARG_OF_PERICENTER": 59.5147, "MEAN_ANOMALY": 300.7472, "EPHEMERIS_TYPE": 0, "CLASSIFICATION_TYPE": "U", "NORAD_CAT_ID": 31113, "ELEMENT_SET_NO": 999, "REV_AT_EPOCH": 97285, "BSTAR": 0.00011031, "MEAN_MOTION_DOT": 2.49e-06, "MEAN_MOTION_DDOT": 0}, "tle": {"line1": "1 31113U 07010A   25338.97275516  .00000249  00000+0  11031-3 0  9993", "line2": "2 31113  98.3308 323.5721 0014547  59.5147 300.7472 14.30961021972858"}}, "geometry": {"type": "Point", "coordinates": [-19.804917337827725, -61.25658553341631]}}, {"type": "Feature", "properties": {"norad_id": 31598, "name": "COSMO-SKYMED 1", "group": "resource", "lat": -80.92873801692906, "lon": -134.2834938574289, "alt_km": 588.4135412574205, "timestamp": "2025-12-06T03:35:01.453913+00:00", "meta": {"OBJECT_NAME": "COSMO-SKYMED 1", "OBJECT_ID": "2007-023A", "EPOCH": "2025-12-05T07:05:33.938016", "MEAN_MOTION": 14.95681096, "ECCENTRICITY": 0.00012645, "INCLINATION": 97.8835, "RA_OF_ASC_NODE": 164.6465, "ARG_OF_PERICENTER": 78.7019, "MEAN_ANOMALY": 281.4344, "EPHEMERIS_TYPE": 0, "CLASSIFICATION_TYPE": "U", "NORAD_CAT_ID": 31598, "ELEMENT_SET_NO": 999, "REV_AT_EPOCH": 79, "BSTAR": 0.00057502213, "MEAN_MOTION_DOT": 6.341e-05, "MEAN_MOTION_DDOT": 0}, "tle": {"line1": "1 31598U 07023A   25339.29553169  .00006341  00000+0  57502-3 0  9995", "line2": "2 31598  97.8835 164.6465 0001264  78.7019 281.4344 14.95681096   796"}}, "geometry": {"type": "Point", "coordinates": [-134.2834938574289, -80.92873801692906]}}, {"type": "Feature", "properties": {"norad_id": 31698, "name": "TERRASAR-X", "group": "resource", "lat": 80.63430923284177, "lon": -141.92769860244184, "alt_km": 499.7530746541106, "timestamp": "2025-12-06T03:35:01.453930+00:00", "meta": {"OBJECT_NAME": "TERRASAR-X", "OBJECT_ID": "2007-026A", "EPOCH": "2025-12-04T14:48:18.110592", "MEAN_MOTION": 15.19148632, "ECCENTRICITY": 0.00018957, "INCLINATION": 97.4444, "RA_OF_ASC_NODE": 344.116, "ARG_OF_PERICENTER": 81.1065, "MEAN_ANOMALY": 279.0384, "EPHEMERIS_TYPE": 0, "CLASSIFICATION_TYPE": "U", "NORAD_CAT_ID": 31698, "ELEMENT_SET_NO": 999, "REV_AT_EPOCH": 2368, "BSTAR": 0.00014930646, "MEAN_MOTION_DOT": 3.069e-05, "MEAN_MOTION_DDOT": 0}, "tle": {"line1": "1 31698U 07026A   25338.61687628  .00003069  00000+0  14931-3 0  9995", "line2": "2 31698  97.4444 344.1160 0001895  81.1065 279.0384 15.19148632 23686"}}, "geometry": {"type": "Point", "coordinates": [-141.92769860244184, 80.63430923284177]}}, {"type": "Feature", "properties": {"norad_id": 32060, "name": "WORLDVIEW-1 (WV-1)", "group": "resource", "lat": -32.01118748878154, "lon": 102.37461758650007, "alt_km": 498.68068177310124, "timestamp": "2025-12-06T03:35:01.453942+00:00", "meta": {"OBJECT_NAME": "WORLDVIEW-1 (WV-1)", "OBJECT_ID": "2007-041A", "EPOCH": "2025-12-05T07:14:47.479488", "MEAN_MOTION": 15.24502289, "ECCENTRICITY": 7.439e-05, "INCLINATION": 97.3844, "RA_OF_ASC_NODE": 96.8891, "ARG_OF_PERICENTER": 98.0568, "MEAN_ANOMALY": 262.0754, "EPHEMERIS_TYPE": 0, "CLASSIFICATION_TYPE": "U", "NORAD_CAT_ID": 32060, "ELEMENT_SET_NO": 999, "REV_AT_EPOCH": 1334, "BSTAR": 0.00060653092, "MEAN_MOTION_DOT": 0.00014858, "MEAN_MOTION_DDOT": 0}, "tle": {"line1": "1 32060U 07041A   25339.30193842  .00014858  00000+0  60653-3 0  9993", "line2": "2 32060  97.3844  96.8891 0000743  98.0568 262.0754 15.24502289 13344"}}, "geometry": {"type": "Point", "coordinates": [102.37461758650007, -32.01118748878154]}}]}